{
    "links": {
        "self": "http://www.neowsapp.com/rest/v1/neo/3829465?api_key=iIulBulltgU6a56xZRHN4H3l9WmuAYTsLGpBGhQ2"
    },
    "id": "3829465",
    "neo_reference_id": "3829465",
    "name": "(2018 RN7)",
    "designation": "2018 RN7",
    "nasa_jpl_url": "http://ssd.jpl.nasa.gov/sbdb.cgi?sstr=3829465",
    "absolute_magnitude_h": 27.7,
    "estimated_diameter": {
        "kilometers": {
            "estimated_diameter_min": 0.0076657557,
            "estimated_diameter_max": 0.0171411509
        },
        "meters": {
            "estimated_diameter_min": 7.6657557353,
            "estimated_diameter_max": 17.1411509231
        },
        "miles": {
            "estimated_diameter_min": 0.0047632783,
            "estimated_diameter_max": 0.0106510141
        },
        "feet": {
            "estimated_diameter_min": 25.1501180466,
            "estimated_diameter_max": 56.2373735944
        }
    },
    "is_potentially_hazardous_asteroid": false,
    "close_approach_data": [
        {
            "close_approach_date": "1953-09-20",
            "close_approach_date_full": "1953-Sep-20 07:40",
            "epoch_date_close_approach": -513793200000,
            "relative_velocity": {
                "kilometers_per_second": "16.6791787061",
                "kilometers_per_hour": "60045.043341964",
                "miles_per_hour": "37309.6548476776"
            },
            "miss_distance": {
                "astronomical": "0.0559730723",
                "lunar": "21.7735251247",
                "kilometers": "8373452.393436001",
                "miles": "5203022.0499427738"
            },
            "orbiting_body": "Earth"
        },
        {
            "close_approach_date": "2018-09-16",
            "close_approach_date_full": "2018-Sep-16 18:18",
            "epoch_date_close_approach": 1537121880000,
            "relative_velocity": {
                "kilometers_per_second": "18.4833019484",
                "kilometers_per_hour": "66539.887014145",
                "miles_per_hour": "41345.2981283169"
            },
            "miss_distance": {
                "astronomical": "0.0052064515",
                "lunar": "2.0253096335",
                "kilometers": "778874.054658305",
                "miles": "483969.895582409"
            },
            "orbiting_body": "Earth"
        },
        {
            "close_approach_date": "2018-09-16",
            "close_approach_date_full": "2018-Sep-16 18:18",
            "epoch_date_close_approach": 1537121880000,
            "relative_velocity": {
                "kilometers_per_second": "19.4602528581",
                "kilometers_per_hour": "70056.9102892748",
                "miles_per_hour": "43530.6396183552"
            },
            "miss_distance": {
                "astronomical": "0.0078526052",
                "lunar": "3.0546634228",
                "kilometers": "1174733.011870924",
                "miles": "729945.2455657912"
            },
            "orbiting_body": "Moon"
        }
    ],
    "orbital_data": {
        "orbit_id": "1",
        "orbit_determination_date": "2018-09-15 17:12:05",
        "first_observation_date": "2018-09-14",
        "last_observation_date": "2018-09-15",
        "data_arc_in_days": 1,
        "observations_used": 21,
        "orbit_uncertainty": "7",
        "minimum_orbit_intersection": "5.4433E-5",
        "jupiter_tisserand_invariant": "3.613",
        "epoch_osculation": "2459000.5",
        "eccentricity": ".6560411053204914",
        "semi_major_axis": "1.928755191717928",
        "inclination": "5.213975704394439",
        "ascending_node_longitude": "354.3532941627057",
        "orbital_period": "978.3946944780278",
        "perihelion_distance": ".663412503850662",
        "perihelion_argument": "81.74698709406989",
        "aphelion_distance": "3.194097879585193",
        "perihelion_time": "2459403.875946537875",
        "mean_anomaly": "211.5779556315899",
        "mean_motion": ".3679496649274652",
        "equinox": "J2000",
        "orbit_class": {
            "orbit_class_type": "APO",
            "orbit_class_description": "Near-Earth asteroid orbits which cross the Earth’s orbit similar to that of 1862 Apollo",
            "orbit_class_range": "a (semi-major axis) > 1.0 AU; q (perihelion) < 1.017 AU"
        }
    },
    "is_sentry_object": false
}